     2.11           N: GPS NAV DATA                         RINEX VERSION / TYPE
teqc  2017Jul3      GNSS Operator       20180106 01:01:04UTCPGM / RUN BY / DATE
Solaris x86 5.10|AMD64|cc SC5.8 -xarch=amd64|=+|=+          COMMENT
    7.4506D-09 -1.4901D-08 -5.9605D-08  1.1921D-07          ION ALPHA
    9.0112D+04 -6.5536D+04 -1.3107D+05  4.5875D+05          ION BETA
    0.000000000000D+00-2.664535259100D-15   147456     1983 DELTA-UTC: A0,A1,T,W
                                                            END OF HEADER
 9 18  1  6  2  0  0.0 4.904400557280D-04 3.524291969370D-12 0.000000000000D+00
    6.200000000000D+01 3.728125000000D+01 4.883774857397D-09 1.280465876886D+00
    1.972541213036D-06 1.153165707365D-03 7.160007953644D-06 5.153701940536D+03
    5.256000000000D+05-2.793967723846D-08 1.957861024862D+00-4.656612873077D-08
    9.525347209174D-01 2.358125000000D+02 1.724672326291D+00-8.241057558840D-09
    3.907305612105D-10 1.000000000000D+00 1.982000000000D+03 0.000000000000D+00
    2.000000000000D+00 0.000000000000D+00 1.396983861923D-09 6.200000000000D+01
    5.184180000000D+05 4.000000000000D+00
27 18  1  6  2  0  0.0 3.608874976635D-04 2.273736754432D-12 0.000000000000D+00
    1.030000000000D+02 6.740625000000D+01 4.410540859587D-09 1.084228819808D+00
    3.648921847343D-06 5.263546481729D-03 4.610046744347D-06 5.153679990768D+03
    5.256000000000D+05 5.774199962616D-08-1.176296672358D+00 2.793967723846D-08
    9.763688777742D-01 2.953125000000D+02 3.518479252727D-01-8.334990042934D-09
    1.832219176426D-10 1.000000000000D+00 1.982000000000D+03 0.000000000000D+00
    2.800000000000D+00 0.000000000000D+00 1.862645149231D-09 1.030000000000D+02
    5.184180000000D+05 4.000000000000D+00
26 18  1  6  1 59 44.0-2.980190329254D-04 1.409716787748D-11 0.000000000000D+00
    4.500000000000D+01 5.715625000000D+01 4.474472094009D-09 2.933696494909D+00
    3.017485141754D-06 2.501699607819D-03 1.161172986031D-05 5.153595981598D+03
    5.255840000000D+05-6.146728992462D-08-2.235658295707D+00-3.539025783539D-08
    9.572697244578D-01 1.529062500000D+02-4.295295570016D-02-7.948545374534D-09
   -1.546492989069D-10 1.000000000000D+00 1.982000000000D+03 0.000000000000D+00
    2.000000000000D+00 0.000000000000D+00 7.450580596924D-09 4.500000000000D+01
    5.184180000000D+05 4.000000000000D+00
30 18  1  6  2  0  0.0 1.149517484009D-04-3.183231456205D-12 0.000000000000D+00
    3.600000000000D+01-1.587500000000D+01 5.105926968067D-09-1.734179789926D+00
   -1.015141606331D-06 3.024657024071D-03 7.165595889092D-06 5.153582901001D+03
    5.256000000000D+05 4.656612873077D-08 3.071634354494D+00-6.705522537231D-08
    9.458984315064D-01 2.347187500000D+02-3.093738334231D+00-8.363205503936D-09
   -3.414427938915D-10 1.000000000000D+00 1.982000000000D+03 0.000000000000D+00
    2.000000000000D+00 0.000000000000D+00 3.725290298462D-09 3.600000000000D+01
    5.184180000000D+05 4.000000000000D+00
 7 18  1  6  2  0  0.0 2.556378021836D-04-5.456968210638D-12 0.000000000000D+00
    7.600000000000D+01-1.528125000000D+01 4.766269962847D-09-1.846480504639D+00
   -9.816139936447D-07 1.111133315135D-02 6.731599569321D-06 5.153697978973D+03
    5.256000000000D+05 1.341104507446D-07 3.035987385769D+00-9.313225746155D-08
    9.602273995655D-01 2.465312500000D+02-2.545613550268D+00-8.094622887820D-09
   -2.246522148093D-10 1.000000000000D+00 1.982000000000D+03 0.000000000000D+00
    2.000000000000D+00 0.000000000000D+00-1.117587089539D-08 7.600000000000D+01
    5.184180000000D+05 4.000000000000D+00
23 18  1  6  2  0  0.0-2.190750092268D-04 0.000000000000D+00 0.000000000000D+00
    4.700000000000D+01 3.721875000000D+01 5.227003439960D-09-3.443690901377D-01
    2.121552824974D-06 1.187663851306D-02 7.249414920807D-06 5.153612363815D+03
    5.256000000000D+05 3.539025783539D-08 1.957572061968D+00 1.545995473862D-07
    9.433746081619D-01 2.314062500000D+02-2.406166649722D+00-8.558213626807D-09
    3.835874065266D-10 1.000000000000D+00 1.982000000000D+03 0.000000000000D+00
    2.000000000000D+00 0.000000000000D+00-2.002343535423D-08 4.700000000000D+01
    5.184180000000D+05 4.000000000000D+00
 5 18  1  6  2  0  0.0-1.773471012712D-05 1.023181539495D-12 0.000000000000D+00
    5.100000000000D+01-4.162500000000D+01 4.636621705334D-09 1.782544024011D+00
   -2.179294824600D-06 5.294573842548D-03 1.161731779575D-05 5.153623348236D+03
    5.256000000000D+05-6.332993507385D-08 9.030289689298D-01-3.725290298462D-09
    9.474368756574D-01 1.513437500000D+02 6.311515277545D-01-8.026762918323D-09
    1.171477368163D-10 1.000000000000D+00 1.982000000000D+03 0.000000000000D+00
    2.000000000000D+00 0.000000000000D+00-1.071020960808D-08 5.100000000000D+01
    5.184180000000D+05 4.000000000000D+00
16 18  1  6  2  0  0.0 3.448873758316D-05-5.684341886081D-13 0.000000000000D+00
    8.000000000000D+01 5.603125000000D+01 3.739084319299D-09 1.923515724071D+00
    3.056600689888D-06 9.661702206358D-03 1.177377998829D-05 5.153572998047D+03
    5.256000000000D+05-2.123415470123D-07-2.139351516601D+00 9.685754776001D-08
    9.882875215250D-01 1.689687500000D+02 4.536299444680D-01-7.691748963647D-09
   -1.339341503235D-10 1.000000000000D+00 1.982000000000D+03 0.000000000000D+00
    2.000000000000D+00 0.000000000000D+00-1.071020960808D-08 8.000000000000D+01
    5.184180000000D+05 4.000000000000D+00
 2 18  1  6  2  0  0.0 2.359631471336D-04-1.023181539495D-11 0.000000000000D+00
    6.800000000000D+01-8.390625000000D+01 5.135928217740D-09-7.652711199510D-01
   -4.155561327934D-06 1.758923626039D-02 4.656612873077D-06 5.153652246475D+03
    5.256000000000D+05-1.396983861923D-07-1.774950386380D-01 2.495944499969D-07
    9.490792528233D-01 2.866875000000D+02-1.916423100772D+00-8.801438043794D-09
   -2.400099973798D-10 1.000000000000D+00 1.982000000000D+03 0.000000000000D+00
    2.000000000000D+00 0.000000000000D+00-2.048909664154D-08 6.800000000000D+01
    5.184360000000D+05 4.000000000000D+00
 8 18  1  6  1 59 44.0-8.668284863234D-05-1.364242052659D-12 0.000000000000D+00
    4.100000000000D+01 6.096875000000D+01 4.574119101849D-09 1.482702747218D+00
    3.254041075706D-06 3.151746699587D-03 4.163011908531D-06 5.153743635178D+03
    5.255840000000D+05 1.676380634308D-08-1.183638995292D+00-6.519258022308D-08
    9.682080609520D-01 2.976250000000D+02-6.072673844498D-01-8.324632468642D-09
    1.532206679701D-10 1.000000000000D+00 1.982000000000D+03 0.000000000000D+00
    2.000000000000D+00 0.000000000000D+00 5.587935447693D-09 4.100000000000D+01
    5.188560000000D+05 4.000000000000D+00
28 18  1  6  2  0  0.0 6.773248314857D-04 3.410605131648D-12 0.000000000000D+00
    5.800000000000D+01 5.203125000000D+01 3.728369587273D-09 1.905820075342D+00
    2.508983016014D-06 1.991424651351D-02 1.030787825584D-05 5.153672737122D+03
    5.256000000000D+05 2.961605787277D-07-2.135000768975D+00-3.054738044739D-07
    9.871276279079D-01 1.900937500000D+02-1.535120806298D+00-7.447453073457D-09
   -7.250302004181D-11 1.000000000000D+00 1.982000000000D+03 0.000000000000D+00
    2.000000000000D+00 0.000000000000D+00-1.117587089539D-08 5.800000000000D+01
    5.200980000000D+05 4.000000000000D+00
